[{"OBJECT_NAME":"COSMOS 2251 DEB","OBJECT_ID":"1993-036ALD","EPOCH":"2026-02-28T05:50:07.481760","MEAN_MOTION":14.37611865,"ECCENTRICITY":0.0017967,"INCLINATION":73.8706,"RA_OF_ASC_NODE":43.2127,"ARG_OF_PERICENTER":326.5251,"MEAN_ANOMALY":33.4765,"EPHEMERIS_TYPE":0,"CLASSIFICATION_TYPE":"U","NORAD_CAT_ID":35459,"ELEMENT_SET_NO":999,"REV_AT_EPOCH":59475,"BSTAR":0.00028955,"MEAN_MOTION_DOT":8.43e-6,"MEAN_MOTION_DDOT":0},{"OBJECT_NAME":"COSMOS 2251 DEB","OBJECT_ID":"1993-036ALG","EPOCH":"2026-03-02T11:28:02.472096","MEAN_MOTION":14.30041703,"ECCENTRICITY":0.00827897,"INCLINATION":74.0357,"RA_OF_ASC_NODE":123.7856,"ARG_OF_PERICENTER":141.5288,"MEAN_ANOMALY":219.1805,"EPHEMERIS_TYPE":0,"CLASSIFICATION_TYPE":"U","NORAD_CAT_ID":35462,"ELEMENT_SET_NO":999,"REV_AT_EPOCH":67520,"BSTAR":0.0013139411,"MEAN_MOTION_DOT":3.497e-5,"MEAN_MOTION_DDOT":0},{"OBJECT_NAME":"COSMOS 2251 DEB","OBJECT_ID":"1993-036ALK","EPOCH":"2026-02-25T23:29:56.832000","MEAN_MOTION":14.44579996,"ECCENTRICITY":0.00647733,"INCLINATION":73.9965,"RA_OF_ASC_NODE":56.6665,"ARG_OF_PERICENTER":202.3242,"MEAN_ANOMALY":157.5094,"EPHEMERIS_TYPE":0,"CLASSIFICATION_TYPE":"U","NORAD_CAT_ID":35465,"ELEMENT_SET_NO":999,"REV_AT_EPOCH":88328,"BSTAR":0.00031427596,"MEAN_MOTION_DOT":1.087e-5,"MEAN_MOTION_DDOT":0},{"OBJECT_NAME":"COSMOS 2251 DEB","OBJECT_ID":"1993-036ALP","EPOCH":"2026-03-02T03:30:23.391648","MEAN_MOTION":14.49900853,"ECCENTRICITY":0.00767715,"INCLINATION":74.0143,"RA_OF_ASC_NODE":234.6003,"ARG_OF_PERICENTER":8.7549,"MEAN_ANOMALY":351.4929,"EPHEMERIS_TYPE":0,"CLASSIFICATION_TYPE":"U","NORAD_CAT_ID":35469,"ELEMENT_SET_NO":999,"REV_AT_EPOCH":89262,"BSTAR":0.00010289112,"MEAN_MOTION_DOT":3.83e-6,"MEAN_MOTION_DDOT":0},{"OBJECT_NAME":"COSMOS 2251 DEB","OBJECT_ID":"1993-036ALV","EPOCH":"2026-03-02T12:57:08.671680","MEAN_MOTION":14.71831598,"ECCENTRICITY":0.0016309,"INCLINATION":74.0239,"RA_OF_ASC_NODE":10.5709,"ARG_OF_PERICENTER":64.6167,"MEAN_ANOMALY":295.6691,"EPHEMERIS_TYPE":0,"CLASSIFICATION_TYPE":"U","NORAD_CAT_ID":35475,"ELEMENT_SET_NO":999,"REV_AT_EPOCH":66790,"BSTAR":0.0023643,"MEAN_MOTION_DOT":0.00014817,"MEAN_MOTION_DDOT":0},{"OBJECT_NAME":"COSMOS 2251 DEB","OBJECT_ID":"1993-036ALW","EPOCH":"2026-03-03T00:17:41.132832","MEAN_MOTION":14.78146142,"ECCENTRICITY":0.0016616,"INCLINATION":73.9745,"RA_OF_ASC_NODE":262.996,"ARG_OF_PERICENTER":231.6896,"MEAN_ANOMALY":280.748,"EPHEMERIS_TYPE":0,"CLASSIFICATION_TYPE":"U","NORAD_CAT_ID":35476,"ELEMENT_SET_NO":999,"REV_AT_EPOCH":89072,"BSTAR":0.0017183,"MEAN_MOTION_DOT":0.00012461,"MEAN_MOTION_DDOT":0},{"OBJECT_NAME":"COSMOS 2251 DEB","OBJECT_ID":"1993-036ALX","EPOCH":"2026-03-02T15:12:44.322048","MEAN_MOTION":13.84237208,"ECCENTRICITY":0.0278732,"INCLINATION":73.9019,"RA_OF_ASC_NODE":42.8201,"ARG_OF_PERICENTER":32.3618,"MEAN_ANOMALY":329.4263,"EPHEMERIS_TYPE":0,"CLASSIFICATION_TYPE":"U","NORAD_CAT_ID":35580,"ELEMENT_SET_NO":999,"REV_AT_EPOCH":63362,"BSTAR":0.0021886,"MEAN_MOTION_DOT":3.278e-5,"MEAN_MOTION_DDOT":0},{"OBJECT_NAME":"COSMOS 2251 DEB","OBJECT_ID":"1993-036AMA","EPOCH":"2026-03-02T11:08:46.971456","MEAN_MOTION":13.55553573,"ECCENTRICITY":0.0381148,"INCLINATION":73.9155,"RA_OF_ASC_NODE":82.7978,"ARG_OF_PERICENTER":92.3821,"MEAN_ANOMALY":272.0971,"EPHEMERIS_TYPE":0,"CLASSIFICATION_TYPE":"U","NORAD_CAT_ID":35583,"ELEMENT_SET_NO":999,"REV_AT_EPOCH":83492,"BSTAR":0.00092091773,"MEAN_MOTION_DOT":1.002e-5,"MEAN_MOTION_DDOT":0},{"OBJECT_NAME":"COSMOS 2251 DEB","OBJECT_ID":"1993-036AMC","EPOCH":"2026-03-02T09:59:38.960160","MEAN_MOTION":13.75547614,"ECCENTRICITY":0.03073059,"INCLINATION":73.97,"RA_OF_ASC_NODE":215.3587,"ARG_OF_PERICENTER":111.2398,"MEAN_ANOMALY":282.8722,"EPHEMERIS_TYPE":0,"CLASSIFICATION_TYPE":"U","NORAD_CAT_ID":35585,"ELEMENT_SET_NO":999,"REV_AT_EPOCH":65159,"BSTAR":0.0024527249,"MEAN_MOTION_DOT":3.316e-5,"MEAN_MOTION_DDOT":0},{"OBJECT_NAME":"COSMOS 2251 DEB","OBJECT_ID":"1993-036AMD","EPOCH":"2026-03-02T13:25:37.759584","MEAN_MOTION":13.52179228,"ECCENTRICITY":0.0403278,"INCLINATION":74.0205,"RA_OF_ASC_NODE":174.6034,"ARG_OF_PERICENTER":32.7225,"MEAN_ANOMALY":344.3851,"EPHEMERIS_TYPE":0,"CLASSIFICATION_TYPE":"U","NORAD_CAT_ID":35586,"ELEMENT_SET_NO":999,"REV_AT_EPOCH":61461,"BSTAR":0.00042485,"MEAN_MOTION_DOT":4.47e-6,"MEAN_MOTION_DDOT":0},{"OBJECT_NAME":"COSMOS 2251 DEB","OBJECT_ID":"1993-036AME","EPOCH":"2026-02-28T05:57:10.477152","MEAN_MOTION":14.71790283,"ECCENTRICITY":0.0099796,"INCLINATION":74.0013,"RA_OF_ASC_NODE":267.4326,"ARG_OF_PERICENTER":75.2926,"MEAN_ANOMALY":285.9281,"EPHEMERIS_TYPE":0,"CLASSIFICATION_TYPE":"U","NORAD_CAT_ID":35587,"ELEMENT_SET_NO":999,"REV_AT_EPOCH":67486,"BSTAR":0.00022219,"MEAN_MOTION_DOT":1.466e-5,"MEAN_MOTION_DDOT":0},{"OBJECT_NAME":"COSMOS 2251 DEB","OBJECT_ID":"1993-036AML","EPOCH":"2026-03-02T15:26:28.373280","MEAN_MOTION":14.26069769,"ECCENTRICITY":0.0100532,"INCLINATION":74.0863,"RA_OF_ASC_NODE":144.5854,"ARG_OF_PERICENTER":132.1867,"MEAN_ANOMALY":228.7872,"EPHEMERIS_TYPE":0,"CLASSIFICATION_TYPE":"U","NORAD_CAT_ID":35593,"ELEMENT_SET_NO":999,"REV_AT_EPOCH":86204,"BSTAR":0.00087218,"MEAN_MOTION_DOT":2.174e-5,"MEAN_MOTION_DDOT":0},{"OBJECT_NAME":"COSMOS 2251 DEB","OBJECT_ID":"1993-036AMM","EPOCH":"2026-03-03T01:54:39.372768","MEAN_MOTION":14.90567528,"ECCENTRICITY":0.002708,"INCLINATION":73.8068,"RA_OF_ASC_NODE":303.7229,"ARG_OF_PERICENTER":37.1087,"MEAN_ANOMALY":323.1959,"EPHEMERIS_TYPE":0,"CLASSIFICATION_TYPE":"U","NORAD_CAT_ID":35594,"ELEMENT_SET_NO":999,"REV_AT_EPOCH":89381,"BSTAR":0.0015008,"MEAN_MOTION_DOT":0.00014776,"MEAN_MOTION_DDOT":0},{"OBJECT_NAME":"COSMOS 2251 DEB","OBJECT_ID":"1993-036AMV","EPOCH":"2026-03-02T20:15:55.412640","MEAN_MOTION":15.39102235,"ECCENTRICITY":0.00785669,"INCLINATION":73.9957,"RA_OF_ASC_NODE":9.3913,"ARG_OF_PERICENTER":52.8926,"MEAN_ANOMALY":339.1226,"EPHEMERIS_TYPE":0,"CLASSIFICATION_TYPE":"U","NORAD_CAT_ID":35602,"ELEMENT_SET_NO":999,"REV_AT_EPOCH":91322,"BSTAR":0.00070905622,"MEAN_MOTION_DOT":0.0003068,"MEAN_MOTION_DDOT":0},{"OBJECT_NAME":"COSMOS 2251 DEB","OBJECT_ID":"1993-036AMZ","EPOCH":"2026-03-03T04:11:37.461696","MEAN_MOTION":13.41325886,"ECCENTRICITY":0.0455427,"INCLINATION":73.8056,"RA_OF_ASC_NODE":242.5881,"ARG_OF_PERICENTER":75.3581,"MEAN_ANOMALY":289.7545,"EPHEMERIS_TYPE":0,"CLASSIFICATION_TYPE":"U","NORAD_CAT_ID":35606,"ELEMENT_SET_NO":999,"REV_AT_EPOCH":62118,"BSTAR":0.00064336,"MEAN_MOTION_DOT":6.41e-6,"MEAN_MOTION_DDOT":0},{"OBJECT_NAME":"COSMOS 2251 DEB","OBJECT_ID":"1993-036ANE","EPOCH":"2026-03-02T21:22:11.866368","MEAN_MOTION":14.75475117,"ECCENTRICITY":0.0016398,"INCLINATION":74.0208,"RA_OF_ASC_NODE":22.7075,"ARG_OF_PERICENTER":78.8247,"MEAN_ANOMALY":281.4769,"EPHEMERIS_TYPE":0,"CLASSIFICATION_TYPE":"U","NORAD_CAT_ID":35611,"ELEMENT_SET_NO":999,"REV_AT_EPOCH":88471,"BSTAR":0.00296,"MEAN_MOTION_DOT":0.00020208,"MEAN_MOTION_DDOT":0}]
