COSMOS 2251 DEB         
1 35459U 93036ALD 26059.24314215  .00000843  00000+0  28955-3 0  9997
2 35459  73.8706  43.2127 0017967 326.5251  33.4765 14.37611865594752
COSMOS 2251 DEB         
1 35462U 93036ALG 26061.47780639  .00003497  00000+0  13139-2 0  9991
2 35462  74.0357 123.7856 0082789 141.5288 219.1805 14.30041703675202
COSMOS 2251 DEB         
1 35465U 93036ALK 26056.97913000  .00001087  00000+0  31428-3 0  9998
2 35465  73.9965  56.6665 0064773 202.3242 157.5094 14.44579996883288
COSMOS 2251 DEB         
1 35469U 93036ALP 26061.14610407  .00000383  00000+0  10289-3 0  9992
2 35469  74.0143 234.6003 0076771   8.7549 351.4929 14.49900853892620
COSMOS 2251 DEB         
1 35475U 93036ALV 26061.53968370  .00014817  00000+0  23643-2 0  9991
2 35475  74.0239  10.5709 0016309  64.6167 295.6691 14.71831598667905
COSMOS 2251 DEB         
1 35476U 93036ALW 26062.01228163  .00012461  00000+0  17183-2 0  9990
2 35476  73.9745 262.9960 0016616 231.6896 280.7480 14.78146142890724
COSMOS 2251 DEB         
1 35580U 93036ALX 26061.63384632  .00003278  00000+0  21886-2 0  9998
2 35580  73.9019  42.8201 0278732  32.3618 329.4263 13.84237208633628
COSMOS 2251 DEB         
1 35583U 93036AMA 26061.46443254  .00001002  00000+0  92092-3 0  9999
2 35583  73.9155  82.7978 0381148  92.3821 272.0971 13.55553573834923
COSMOS 2251 DEB         
1 35585U 93036AMC 26061.41642315  .00003316  00000+0  24527-2 0  9992
2 35585  73.9700 215.3587 0307305 111.2398 282.8722 13.75547614651598
COSMOS 2251 DEB         
1 35586U 93036AMD 26061.55946481  .00000447  00000+0  42485-3 0  9995
2 35586  74.0205 174.6034 0403278  32.7225 344.3851 13.52179228614613
COSMOS 2251 DEB         
1 35587U 93036AME 26059.24803793  .00001466  00000+0  22219-3 0  9992
2 35587  74.0013 267.4326 0099796  75.2926 285.9281 14.71790283674864
COSMOS 2251 DEB         
1 35593U 93036AML 26061.64338395  .00002174  00000+0  87218-3 0  9994
2 35593  74.0863 144.5854 0100532 132.1867 228.7872 14.26069769862041
COSMOS 2251 DEB         
1 35594U 93036AMM 26062.07962237  .00014776  00000+0  15008-2 0  9999
2 35594  73.8068 303.7229 0027080  37.1087 323.1959 14.90567528893817
COSMOS 2251 DEB         
1 35602U 93036AMV 26061.84439135  .00030680  00000+0  70906-3 0  9990
2 35602  73.9957   9.3913 0078566  52.8926 339.1226 15.39102235913221
COSMOS 2251 DEB         
1 35606U 93036AMZ 26062.17473914  .00000641  00000+0  64336-3 0  9998
2 35606  73.8056 242.5881 0455427  75.3581 289.7545 13.41325886621186
COSMOS 2251 DEB         
1 35611U 93036ANE 26061.89041512  .00020208  00000+0  29600-2 0  9992
2 35611  74.0208  22.7075 0016398  78.8247 281.4769 14.75475117884712
